STARLINK-32202          
1 60595U 24150N   26003.47356403  .00001277  00000+0  55241-4 0  9997
2 60595  53.1589 250.1516 0001329 102.6683 257.4466 15.30193790 78051
STARLINK-31930          
1 60596U 24150P   26003.37131847  .00001875  00000+0  75452-4 0  9990
2 60596  53.1614 250.2236 0001366  99.1486 260.9669 15.30190554 77961
STARLINK-32162          
1 60597U 24150Q   26003.09433922  .00000932  00000+0  43615-4 0  9998
2 60597  53.1596 252.0517 0001172  80.2379 279.8754 15.30191378 77992
STARLINK-32208          
1 60598U 24150R   26002.96687870  .00004345  00000+0  15880-3 0  9991
2 60598  53.1589 252.6787 0001209  63.3324 296.7800 15.30188469 77978
STARLINK-32165          
1 60599U 24150S   26003.08801343  .00001821  00000+0  73633-4 0  9996
2 60599  53.1593 252.0057 0001518 118.8025 241.3128 15.30191439 77997
STARLINK-31923          
1 60600U 24150T   26003.40402747 -.00000057  00000+0  10211-4 0  9994
2 60600  53.1598 250.4283 0001081  97.3761 262.7363 15.30189472 78040
STARLINK-31988          
1 60601U 24150U   26003.39770002  .00001528  00000+0  63700-4 0  9999
2 60601  53.1591 250.3919 0001251  74.6687 285.4451 15.30193665 77962
STARLINK-31983          
1 60602U 24150V   26003.38503284  .00001932  00000+0  77335-4 0  9993
2 60602  53.1599 250.3100 0001102 103.4099 256.7025 15.30193527 77961
STARLINK-31874          
1 60603U 24150W   26003.39136344  .00002901  00000+0  11008-3 0  9995
2 60603  53.1586 250.3493 0001019 103.2089 256.9026 15.30182831 78046
STARLINK-32039          
1 60604U 24150X   26003.38145088  .00001080  00000+0  48592-4 0  9996
2 60604  53.1610 253.1273 0001147  95.5232 264.5900 15.30197384 78008
STARLINK-11247 [DTC]    
1 60720U 24152A   26003.44697350  .00002456  00000+0  25126-4 0  9994
2 60720  53.1586  78.2005 0001009  94.5081 265.6052 15.69705280 78581
STARLINK-11259 [DTC]    
1 60721U 24152B   26003.50573288 -.00002834  00000+0 -18517-4 0  9993
2 60721  53.1603  77.8555 0001577  43.6267 316.4876 15.69730452 78597
STARLINK-11188 [DTC]    
1 60722U 24152C   26003.50082608  .00000038  00000+0  51730-5 0  9992
2 60722  53.1587  77.8220 0001271  58.3060 301.8081 15.69721744 78717
STARLINK-11272 [DTC]    
1 60723U 24152D   26003.49101210 -.00000326  00000+0  21703-5 0  9990
2 60723  53.1594  77.7548 0001128  80.4104 279.7041 15.69727686 78590
STARLINK-11261 [DTC]    
1 60724U 24152E   26003.49591445  .00000387  00000+0  80408-5 0  9997
2 60724  53.1591  77.7884 0000879  99.6744 260.4374 15.69727393 78596
STARLINK-11263 [DTC]    
1 60725U 24152F   26003.48611570 -.00003320  00000+0 -22547-4 0  9990
2 60725  53.1592  77.7220 0001045 100.9860 259.1275 15.69720677 78596
