[{"OBJECT_NAME":"STARLINK-32202","OBJECT_ID":"2024-150N","EPOCH":"2026-01-03T11:21:55.932192","MEAN_MOTION":15.3019379,"ECCENTRICITY":0.0001329,"INCLINATION":53.1589,"RA_OF_ASC_NODE":250.1516,"ARG_OF_PERICENTER":102.6683,"MEAN_ANOMALY":257.4466,"EPHEMERIS_TYPE":0,"CLASSIFICATION_TYPE":"U","NORAD_CAT_ID":60595,"ELEMENT_SET_NO":999,"REV_AT_EPOCH":7805,"BSTAR":5.5241e-5,"MEAN_MOTION_DOT":1.277e-5,"MEAN_MOTION_DDOT":0},{"OBJECT_NAME":"STARLINK-31930","OBJECT_ID":"2024-150P","EPOCH":"2026-01-03T08:54:41.915808","MEAN_MOTION":15.30190554,"ECCENTRICITY":0.0001366,"INCLINATION":53.1614,"RA_OF_ASC_NODE":250.2236,"ARG_OF_PERICENTER":99.1486,"MEAN_ANOMALY":260.9669,"EPHEMERIS_TYPE":0,"CLASSIFICATION_TYPE":"U","NORAD_CAT_ID":60596,"ELEMENT_SET_NO":999,"REV_AT_EPOCH":7796,"BSTAR":7.5452e-5,"MEAN_MOTION_DOT":1.875e-5,"MEAN_MOTION_DDOT":0},{"OBJECT_NAME":"STARLINK-32162","OBJECT_ID":"2024-150Q","EPOCH":"2026-01-03T02:15:50.908608","MEAN_MOTION":15.30191378,"ECCENTRICITY":0.00011722,"INCLINATION":53.1596,"RA_OF_ASC_NODE":252.0517,"ARG_OF_PERICENTER":80.2379,"MEAN_ANOMALY":279.8754,"EPHEMERIS_TYPE":0,"CLASSIFICATION_TYPE":"U","NORAD_CAT_ID":60597,"ELEMENT_SET_NO":999,"REV_AT_EPOCH":7799,"BSTAR":4.3614924e-5,"MEAN_MOTION_DOT":9.32e-6,"MEAN_MOTION_DDOT":0},{"OBJECT_NAME":"STARLINK-32208","OBJECT_ID":"2024-150R","EPOCH":"2026-01-02T23:12:18.319680","MEAN_MOTION":15.30188469,"ECCENTRICITY":0.0001209,"INCLINATION":53.1589,"RA_OF_ASC_NODE":252.6787,"ARG_OF_PERICENTER":63.3324,"MEAN_ANOMALY":296.78,"EPHEMERIS_TYPE":0,"CLASSIFICATION_TYPE":"U","NORAD_CAT_ID":60598,"ELEMENT_SET_NO":999,"REV_AT_EPOCH":7797,"BSTAR":0.0001588,"MEAN_MOTION_DOT":4.345e-5,"MEAN_MOTION_DDOT":0},{"OBJECT_NAME":"STARLINK-32165","OBJECT_ID":"2024-150S","EPOCH":"2026-01-03T02:06:44.360352","MEAN_MOTION":15.30191439,"ECCENTRICITY":0.00015181,"INCLINATION":53.1593,"RA_OF_ASC_NODE":252.0057,"ARG_OF_PERICENTER":118.8025,"MEAN_ANOMALY":241.3128,"EPHEMERIS_TYPE":0,"CLASSIFICATION_TYPE":"U","NORAD_CAT_ID":60599,"ELEMENT_SET_NO":999,"REV_AT_EPOCH":7799,"BSTAR":7.363308e-5,"MEAN_MOTION_DOT":1.821e-5,"MEAN_MOTION_DDOT":0},{"OBJECT_NAME":"STARLINK-31923","OBJECT_ID":"2024-150T","EPOCH":"2026-01-03T09:41:47.973408","MEAN_MOTION":15.30189472,"ECCENTRICITY":0.0001081,"INCLINATION":53.1598,"RA_OF_ASC_NODE":250.4283,"ARG_OF_PERICENTER":97.3761,"MEAN_ANOMALY":262.7363,"EPHEMERIS_TYPE":0,"CLASSIFICATION_TYPE":"U","NORAD_CAT_ID":60600,"ELEMENT_SET_NO":999,"REV_AT_EPOCH":7804,"BSTAR":1.0211e-5,"MEAN_MOTION_DOT":-5.7e-7,"MEAN_MOTION_DDOT":0},{"OBJECT_NAME":"STARLINK-31988","OBJECT_ID":"2024-150U","EPOCH":"2026-01-03T09:32:41.281728","MEAN_MOTION":15.30193665,"ECCENTRICITY":0.0001251,"INCLINATION":53.1591,"RA_OF_ASC_NODE":250.3919,"ARG_OF_PERICENTER":74.6687,"MEAN_ANOMALY":285.4451,"EPHEMERIS_TYPE":0,"CLASSIFICATION_TYPE":"U","NORAD_CAT_ID":60601,"ELEMENT_SET_NO":999,"REV_AT_EPOCH":7796,"BSTAR":6.37e-5,"MEAN_MOTION_DOT":1.528e-5,"MEAN_MOTION_DDOT":0},{"OBJECT_NAME":"STARLINK-31983","OBJECT_ID":"2024-150V","EPOCH":"2026-01-03T09:14:26.837376","MEAN_MOTION":15.30193527,"ECCENTRICITY":0.0001102,"INCLINATION":53.1599,"RA_OF_ASC_NODE":250.31,"ARG_OF_PERICENTER":103.4099,"MEAN_ANOMALY":256.7025,"EPHEMERIS_TYPE":0,"CLASSIFICATION_TYPE":"U","NORAD_CAT_ID":60602,"ELEMENT_SET_NO":999,"REV_AT_EPOCH":7796,"BSTAR":7.7335e-5,"MEAN_MOTION_DOT":1.932e-5,"MEAN_MOTION_DDOT":0},{"OBJECT_NAME":"STARLINK-31874","OBJECT_ID":"2024-150W","EPOCH":"2026-01-03T09:23:33.801216","MEAN_MOTION":15.30182831,"ECCENTRICITY":0.0001019,"INCLINATION":53.1586,"RA_OF_ASC_NODE":250.3493,"ARG_OF_PERICENTER":103.2089,"MEAN_ANOMALY":256.9026,"EPHEMERIS_TYPE":0,"CLASSIFICATION_TYPE":"U","NORAD_CAT_ID":60603,"ELEMENT_SET_NO":999,"REV_AT_EPOCH":7804,"BSTAR":0.00011008,"MEAN_MOTION_DOT":2.901e-5,"MEAN_MOTION_DDOT":0},{"OBJECT_NAME":"STARLINK-32039","OBJECT_ID":"2024-150X","EPOCH":"2026-01-03T09:09:17.356032","MEAN_MOTION":15.30197384,"ECCENTRICITY":0.0001147,"INCLINATION":53.161,"RA_OF_ASC_NODE":253.1273,"ARG_OF_PERICENTER":95.5232,"MEAN_ANOMALY":264.59,"EPHEMERIS_TYPE":0,"CLASSIFICATION_TYPE":"U","NORAD_CAT_ID":60604,"ELEMENT_SET_NO":999,"REV_AT_EPOCH":7800,"BSTAR":4.8592e-5,"MEAN_MOTION_DOT":1.08e-5,"MEAN_MOTION_DDOT":0},{"OBJECT_NAME":"STARLINK-11247 [DTC]","OBJECT_ID":"2024-152A","EPOCH":"2026-01-03T10:43:38.510400","MEAN_MOTION":15.6970528,"ECCENTRICITY":0.0001009,"INCLINATION":53.1586,"RA_OF_ASC_NODE":78.2005,"ARG_OF_PERICENTER":94.5081,"MEAN_ANOMALY":265.6052,"EPHEMERIS_TYPE":0,"CLASSIFICATION_TYPE":"U","NORAD_CAT_ID":60720,"ELEMENT_SET_NO":999,"REV_AT_EPOCH":7858,"BSTAR":2.5126e-5,"MEAN_MOTION_DOT":2.456e-5,"MEAN_MOTION_DDOT":0},{"OBJECT_NAME":"STARLINK-11259 [DTC]","OBJECT_ID":"2024-152B","EPOCH":"2026-01-03T12:08:15.320832","MEAN_MOTION":15.69730452,"ECCENTRICITY":0.0001577,"INCLINATION":53.1603,"RA_OF_ASC_NODE":77.8555,"ARG_OF_PERICENTER":43.6267,"MEAN_ANOMALY":316.4876,"EPHEMERIS_TYPE":0,"CLASSIFICATION_TYPE":"U","NORAD_CAT_ID":60721,"ELEMENT_SET_NO":999,"REV_AT_EPOCH":7859,"BSTAR":-1.8517e-5,"MEAN_MOTION_DOT":-2.834e-5,"MEAN_MOTION_DDOT":0},{"OBJECT_NAME":"STARLINK-11188 [DTC]","OBJECT_ID":"2024-152C","EPOCH":"2026-01-03T12:01:11.373312","MEAN_MOTION":15.69721744,"ECCENTRICITY":0.0001271,"INCLINATION":53.1587,"RA_OF_ASC_NODE":77.822,"ARG_OF_PERICENTER":58.306,"MEAN_ANOMALY":301.8081,"EPHEMERIS_TYPE":0,"CLASSIFICATION_TYPE":"U","NORAD_CAT_ID":60722,"ELEMENT_SET_NO":999,"REV_AT_EPOCH":7871,"BSTAR":5.173e-6,"MEAN_MOTION_DOT":3.8e-7,"MEAN_MOTION_DDOT":0},{"OBJECT_NAME":"STARLINK-11272 [DTC]","OBJECT_ID":"2024-152D","EPOCH":"2026-01-03T11:47:03.445440","MEAN_MOTION":15.69727686,"ECCENTRICITY":0.0001128,"INCLINATION":53.1594,"RA_OF_ASC_NODE":77.7548,"ARG_OF_PERICENTER":80.4104,"MEAN_ANOMALY":279.7041,"EPHEMERIS_TYPE":0,"CLASSIFICATION_TYPE":"U","NORAD_CAT_ID":60723,"ELEMENT_SET_NO":999,"REV_AT_EPOCH":7859,"BSTAR":2.1703e-6,"MEAN_MOTION_DOT":-3.26e-6,"MEAN_MOTION_DDOT":0},{"OBJECT_NAME":"STARLINK-11261 [DTC]","OBJECT_ID":"2024-152E","EPOCH":"2026-01-03T11:54:07.008480","MEAN_MOTION":15.69727393,"ECCENTRICITY":8.79e-5,"INCLINATION":53.1591,"RA_OF_ASC_NODE":77.7884,"ARG_OF_PERICENTER":99.6744,"MEAN_ANOMALY":260.4374,"EPHEMERIS_TYPE":0,"CLASSIFICATION_TYPE":"U","NORAD_CAT_ID":60724,"ELEMENT_SET_NO":999,"REV_AT_EPOCH":7859,"BSTAR":8.0408e-6,"MEAN_MOTION_DOT":3.87e-6,"MEAN_MOTION_DDOT":0},{"OBJECT_NAME":"STARLINK-11263 [DTC]","OBJECT_ID":"2024-152F","EPOCH":"2026-01-03T11:40:00.396480","MEAN_MOTION":15.69720677,"ECCENTRICITY":0.0001045,"INCLINATION":53.1592,"RA_OF_ASC_NODE":77.722,"ARG_OF_PERICENTER":100.986,"MEAN_ANOMALY":259.1275,"EPHEMERIS_TYPE":0,"CLASSIFICATION_TYPE":"U","NORAD_CAT_ID":60725,"ELEMENT_SET_NO":999,"REV_AT_EPOCH":7859,"BSTAR":-2.2547e-5,"MEAN_MOTION_DOT":-3.32e-5,"MEAN_MOTION_DDOT":0}]
